County,Street,City,State,Zip Code,Location Name
Dekalb,2201 YOUNG ROAD,STONE MOUNTAIN,GA,30088,AV-BEREAN CHRISTIAN CHURCH
Dekalb,2051 DELANO DRIVE NE,Atlanta,GA,30317,AV-BESSIE BRANHAM RECREATION CENTER
Dekalb,2340 CLIFTON SPRINGS RD,DECATUR,GA,30034,AV-BEULAH MISSIONARY BAPTIST CHURCH
Dekalb,2235 BRIARWOOD WAY NE,BROOKHAVEN,GA,30319,AV-BRIARWOOD RECREATION CENTER
Dekalb,951 N INDIAN CREEK DR,CLARKSTON,GA,30021,AV-CLARKSTON LIBRARY
Dekalb,4331 RIVER RD.,ELLENWOOD,GA,30294,AV-COUNTY LINE-ELLENWOOD LIBRARY
Dekalb,5339 CHAMBLEE DUNWOODY RD,DUNWOODY,GA,30338,AV-DUNWOODY LIBRARY
Dekalb,1599 CLIFTON RD B,Atlanta,GA,30322,AV-EMORY UNIVERSITY
Dekalb,1879 GLENWOOD AVE,Atlanta,GA,30316,AV-GREATER PINEY GROVE BAPTIST
Dekalb,4911 REDAN RD,STONE MOUNTAIN,GA,30088,AV-HAIRSTON CROSSING LIBRARY
Dekalb,3360 OSBORNE RD. NE,BROOKHAVEN GA,GA,30319,AV-LYNWOOD RECREATION CENTER
Dekalb,4380 MEMORIAL DRIVE,DECATUR,GA,30032,AV-MEMORIAL 1
Dekalb,8350 ROCKBRIDGE RD,Lithionia,GA,30058,AV-NEW BETHEL AME CHURCH
Dekalb,3592 FLAT SHOALS RD,DECATUR,GA,30034,AV-NEW LIFE COMMUNITY CENTER
Dekalb,3393 MALONE DRIVE,CHAMBLEE,GA,30341,AV-NORTH DEKALB SENIOR CENTER
Dekalb,5234 LAVISTA RD,TUCKER,GA,30084,AV-REID H. COFER LIBRARY
Dekalb,5137 SALEM RD,LITHONIA,GA,30038,AV-SALEM PANOLA LIBRARY
Dekalb,2994 TURNER HILL ROAD,STONECREST,GA,30038,AV-STONECREST (FORMER SAM'S CLUB)
Dekalb,2861 WESLEY CHAPEL ROAD,DECATUR,GA,30034,AV-WESLEY CHAPEL LIBRARY
Fulton,2231 CAMPBELLTON ROAD SW,Atlanta,GA,30311,ADAMS PARK LIBRARY
Fulton,10 PARK PLACE,ALPHARETTA,GA,30009,ALPHARETTA LIBRARY
Fulton,1630 METROPOLITAN PARKWAY SW,Atlanta,GA,30310,ATLANTA METROPOLITAN STATE COLLEGE
Fulton,269 BUCKHEAD AVENUE NE,Atlanta,GA,30305,BUCKHEAD LIBRARY
Fulton,3201 M.L.K. JR. DRIVE SW,Atlanta,GA,30311,C.T. MARTIN RECREATION CENTER
Fulton,140 CHASTAIN PARK AVENUE NW,Atlanta,GA,30342,CHASTAIN PARK RECREATION CENTER
Fulton,6500 VERNON WOODS DR,SANDY SPRINGS,GA,30328,DOROTHY C. BENSON SENIOR MULTIPURPOSE COMPLEX
Fulton,2651 N CHURCH STREET,EAST POINT,GA,30344,EAST POINT FIRST MALLALIEU UNITED METHODIST CHURCH
Fulton,2301 HOLCOMB BRIDGE ROAD,ROSWELL,GA,30076,EAST ROSWELL LIBRARY
Fulton,5600 CAMPBELLTON FAIRBURN ROAD,UNION CITY,GA,30213,ELECTIONS HUB
Fulton,5285 LAKESIDE DRIVE,UNION CITY,GA,30291,ETRIS DARNELL COMMUNITY RECREATION CENTER
Fulton,3665 CASCADE ROAD,SOUTH FULTON,GA,30331,EVELYN G. LOWERY LIBRARY AT CASCADE
Fulton,40 WASHINGTON STREET,FAIRBURN,GA,30213,FAIRBURN ANNEX
Fulton,580 ATLANTA STUDENT MOVEMENT BLVD SW,ATLANTA,GA,30314,FLIPPER TEMPLE AME CHURCH FELLOWSHIP HALL
Fulton,11575 MAXWELL ROAD,ALPHARETTA,GA,30009,FULTON COUNTY CUSTOMER SERVICE CENTER AT MAXWELL ROAD
Fulton,130 PEACHTREE STREET NE,Atlanta,GA,30303,FULTON COUNTY GOVERMENT CENTER
Fulton,351 FERST DR NW,Atlanta,GA,30332,GEORGIA INSTITUTE OF TECHNOLOGY JOHN LEWIS STUDENT CENTER
Fulton,30 COURTLAND STREET SE,Atlanta,GA,30303,GEORGIA STATE UNIVERSITY AT DAHLBERG HALL
Fulton,4055 FLAT SHOALS ROAD,SOUTH FULTON,GA,30291,GLADYS S. DENNARD LIBRARY AT SOUTH FULTON
Fulton,537 PARK AVENUE SE,Atlanta,GA,30312,GRANT PARK RECREATION CENTER
Fulton,2885 CHURCH ST,Atlanta,GA,30344,H.J.C. BOWDEN SENIOR MULTIPURPOSE FACILITY
Fulton,677 FAIRBURN RD SW NW,Atlanta,GA,30331,HARRIET G DARNELL SENIOR FACILITY
Fulton,515 JOHN WESLEY DOBBS AVENUE NE,Atlanta,GA,30312,HELENE S. MILLS MULTIPURPOSES FACILITY
Fulton,6110 BLUE STONE ROAD,SANDY SPRINGS,GA,30328,HERITAGE HALL SANDY SPRINGS
Fulton,1280 PEACHTREE STREET NE,Atlanta,GA,30309,HIGH MUSEUM OF ARTS
Fulton,3636 COLLEGE STREET,COLLEGE PARK,GA,30337,HUGH C. CONLEY RECREATION CENTER
Fulton,980 PONCE DE LEON AVENUE NE,Atlanta,GA,30306,JOAN P. GARNER LIBRARY AT PONCE DE LEON
Fulton,8100 HOLCOMB BRIDGE ROAD,ALPHARETTA,GA,30022,JOHNS CREEK ENVIROMNMENTAL CAMPUS
Fulton,1463 PRYOR ROAD SW,Atlanta,GA,30315,LOUISE WATLEY LIBRARY AT SOUTHEAST ATLANTA
Fulton,1785 DINSMORE ROAD,MILTON,GA,30004,MILTON COMMUNITY CENTER
Fulton,855 MAYFIELD ROAD,MILTON,GA,30009,MILTON LIBRARY
Fulton,7741 ROSWELL ROAD,SANDY SPRINGS,GA,30350,NORTH FULTON SERVICE CENTER
Fulton,9560 SPRUILL ROAD,JOHNS CREEK,GA,30022,NORTHEAST SPRUILL OAKS LIBRARY
Fulton,3295 NORTHSIDE PARKWAY NW,Atlanta,GA,30327,NORTHSIDE LIBRARY
Fulton,2489 PEERY BOULEVARD NW,ATLANTA,GA,30318,NORTHWEST LIBRARY AT SCOTTS CROSSING
Fulton,9111 CASCADE PALMETTO HIGHWAY,PALMETTO,GA,30268,PALMETTO LIBRARY
Fulton,5090 ABBOTTS BRIDGE ROAD,JOHNS CREEK,GA,30005,ROBERT F. FULTON OCEE LIBRARY
Fulton,115 NORCROSS STREET,ROSWELL,GA,30075,ROSWELL LIBRARY
Fulton,395 MOUNT VERNON HIGHWAY,SANDY SPRINGS,GA,30328,SANDY SPRINGS LIBRARY
Fulton,5600 STONEWALL TELL ROAD,SOUTH FULTON,GA,30349,SOUTH FULTON SERVICE CENTER
Fulton,915 NEW HOPE ROAD SW,SOUTH FULTON,GA,30331,SOUTHWEST ARTS CENTER
Fulton,4255 WILL LEE ROAD,SOUTH FULTON,GA,30349,WELCOME ALL RECREATION CENTER
Fulton,3100 ENON ROAD,SOUTH FULTON,GA,30331,WOLF CREEK LIBRARY